OBJECT_NAME,OBJECT_ID,EPOCH,MEAN_MOTION,ECCENTRICITY,INCLINATION,RA_OF_ASC_NODE,ARG_OF_PERICENTER,MEAN_ANOMALY,EPHEMERIS_TYPE,CLASSIFICATION_TYPE,NORAD_CAT_ID,ELEMENT_SET_NO,REV_AT_EPOCH,BSTAR,MEAN_MOTION_DOT,MEAN_MOTION_DDOT
ONEWEB-0395,2021-132G,2026-07-20T10:22:41.092320,13.11417935,.00019559,87.8889,14.4462,85.1841,274.9511,0,U,50475,999,22007,-.15016087E-2,-.519E-5,0
ONEWEB-0396,2021-132H,2026-07-20T18:43:58.445184,13.18686464,.0001717,87.9202,328.7767,97.5132,262.6195,0,U,50476,999,22606,.54112E-4,.34E-6,0
ONEWEB-0397,2021-132J,2026-07-20T20:55:04.771200,13.18686851,.0001641,87.9202,328.7586,101.1272,259.0045,0,U,50477,999,22605,.61906E-5,.15E-6,0
ONEWEB-0398,2021-132K,2026-07-20T20:35:32.127072,13.11416357,.0002111,87.8897,14.3549,87.7339,272.4031,0,U,50478,999,22002,.14722E-2,.534E-5,0
ONEWEB-0399,2021-132L,2026-07-20T11:06:40.106016,13.11418021,.00014286,87.8892,14.4448,81.5955,278.5334,0,U,50479,999,21996,.12291128E-2,.448E-5,0
ONEWEB-0400,2021-132M,2026-07-20T20:23:31.259040,13.18685462,.0002033,87.9202,328.7528,96.5702,263.5662,0,U,50480,999,22604,.5915E-4,.36E-6,0
ONEWEB-0401,2021-132N,2026-07-20T19:39:49.209984,13.18686596,.0001856,87.9203,328.7562,106.1784,253.9552,0,U,50481,999,22604,.89889E-4,.48E-6,0
ONEWEB-0402,2021-132P,2026-07-20T20:35:39.206688,13.18684119,.0001692,87.9202,328.7372,112.7155,247.4156,0,U,50482,999,22607,-.48404E-5,.11E-6,0
ONEWEB-0403,2021-132Q,2026-07-20T19:22:49.327104,13.18686933,.0001784,87.9203,328.7717,95.6085,264.5251,0,U,50483,999,22602,.1419E-4,.19E-6,0
ONEWEB-0404,2021-132R,2026-07-20T10:39:47.390400,13.11418221,.00017305,87.8893,14.4451,81.0176,279.1147,0,U,50484,999,22005,-.7831388E-3,-.265E-5,0
ONEWEB-0405,2021-132S,2026-07-20T19:42:15.073056,13.18685414,.0002331,87.9206,328.7545,95.0103,265.1296,0,U,50485,999,22642,.48957E-4,.32E-6,0
ONEWEB-0406,2021-132T,2026-07-20T19:30:05.827680,13.18686760,.0001594,87.9200,328.7705,83.7701,276.3613,0,U,50486,999,22605,-.69051E-4,-.14E-6,0
ONEWEB-0407,2021-132U,2026-07-20T19:20:22.644096,13.18684518,.0002013,87.9205,328.7651,102.9720,257.1637,0,U,50487,999,22599,-.15001E-4,.7E-7,0
ONEWEB-0409,2021-132V,2026-07-20T17:56:49.120800,13.11418637,.0001851,87.8898,14.3742,82.2902,277.8436,0,U,50488,999,21998,-.92637E-3,-.316E-5,0
ONEWEB-0412,2021-132W,2026-07-20T20:52:39.278784,13.18686329,.0001741,87.9199,328.7600,108.0515,252.0807,0,U,50489,999,22609,-.61509E-4,-.11E-6,0
ONEWEB-0413,2021-132X,2026-07-20T19:10:40.315872,13.18685327,.0001932,87.9193,328.7701,108.7530,251.3812,0,U,50490,999,22602,-.45712E-3,-.167E-5,0
ONEWEB-0414,2021-132Y,2026-07-20T20:38:04.981632,13.18686846,.0001713,87.9204,328.7433,100.7923,259.3402,0,U,50491,999,22606,.20988E-4,.21E-6,0
ONEWEB-0417,2021-132Z,2026-07-20T20:50:13.462368,13.18683944,.0001793,87.9196,328.7584,91.5541,268.5797,0,U,50492,999,22604,.1254E-3,.62E-6,0
ONEWEB-0418,2021-132AA,2026-07-20T19:15:20.016000,13.18686143,.00018,87.9197,328.7730,91.2359,268.8980,0,U,50493,999,22609,.46792E-4,.31E-6,0
ONEWEB-0419,2021-132AB,2026-07-20T19:42:51.296256,13.18665813,.0002044,87.9202,328.7702,92.8478,267.2888,0,U,50494,999,22601,-.27769E-3,-.97E-6,0
ONEWEB-0420,2021-132AC,2026-07-20T18:51:14.752224,13.18684215,.000206,87.9194,328.7772,103.4562,256.6800,0,U,50495,999,22600,.65803E-4,.39E-6,0
ONEWEB-0421,2021-132AD,2026-07-20T18:41:33.576576,13.18685871,.0001563,87.9195,328.7769,105.1838,254.9467,0,U,50496,999,22604,.4426E-4,.3E-6,0
ONEWEB-0424,2021-132AE,2026-07-20T19:34:57.643680,13.18686737,.0002158,87.9203,328.7694,92.3788,267.7591,0,U,50497,999,22607,-.1156E-3,-.33E-6,0
ONEWEB-0426,2021-132AF,2026-07-20T20:24:42.653088,13.18697847,.0001341,87.9205,328.7534,86.6347,273.4939,0,U,50498,999,22602,-.71269E-2,-.2796E-4,0
ONEWEB-0427,2021-132AG,2026-07-20T19:32:32.031168,13.18688405,.0001757,87.9203,328.7501,94.8311,265.3022,0,U,50499,999,22604,-.75451E-3,-.285E-5,0
ONEWEB-0429,2021-132AH,2026-07-20T19:13:05.633760,13.18685684,.0001957,87.9191,328.7739,104.7581,255.3768,0,U,50500,999,22601,-.59483E-3,-.222E-5,0
ONEWEB-0430,2021-132AJ,2026-07-20T20:45:21.313728,13.18682575,.0002177,87.9194,328.7605,112.2471,247.8892,0,U,50501,999,22606,.83672E-5,.16E-6,0
ONEWEB-0432,2021-132AK,2026-07-20T20:20:54.197664,13.18686512,.000234,87.9201,328.7506,95.7128,264.4271,0,U,50502,999,22601,.8018E-4,.45E-6,0
ONEWEB-0440,2021-132AL,2026-07-20T19:25:14.496384,13.18685043,.000179,87.9204,328.7700,109.0851,251.0475,0,U,50503,999,22600,.28162E-4,.24E-6,0
ONEWEB-0450,2021-132AM,2026-07-20T19:15:43.646400,13.18686833,.0002039,87.9196,328.7729,103.3506,256.7854,0,U,50504,999,22603,-.79897E-5,.1E-6,0
