ONEWEB-0395             
1 50475U 21132G   26201.43242005 -.00000519  00000+0 -15016-2 0  9992
2 50475  87.8889  14.4462 0001955  85.1841 274.9511 13.11417935220074
ONEWEB-0396             
1 50476U 21132H   26201.78053756  .00000034  00000+0  54112-4 0  9996
2 50476  87.9202 328.7767 0001717  97.5132 262.6195 13.18686464226069
ONEWEB-0397             
1 50477U 21132J   26201.87158300  .00000015  00000+0  61906-5 0  9997
2 50477  87.9202 328.7586 0001641 101.1272 259.0045 13.18686851226055
ONEWEB-0398             
1 50478U 21132K   26201.85801073  .00000534  00000+0  14722-2 0  9995
2 50478  87.8897  14.3549 0002111  87.7339 272.4031 13.11416357220028
ONEWEB-0399             
1 50479U 21132L   26201.46296419  .00000448  00000+0  12291-2 0  9998
2 50479  87.8892  14.4448 0001428  81.5955 278.5334 13.11418021219963
ONEWEB-0400             
1 50480U 21132M   26201.84966735  .00000036  00000+0  59150-4 0  9997
2 50480  87.9202 328.7528 0002033  96.5702 263.5662 13.18685462226047
ONEWEB-0401             
1 50481U 21132N   26201.81931956  .00000048  00000+0  89889-4 0  9997
2 50481  87.9203 328.7562 0001856 106.1784 253.9552 13.18686596226047
ONEWEB-0402             
1 50482U 21132P   26201.85809267  .00000011  00000+0 -48404-5 0  9991
2 50482  87.9202 328.7372 0001692 112.7155 247.4156 13.18684119226079
ONEWEB-0403             
1 50483U 21132Q   26201.80751536  .00000019  00000+0  14190-4 0  9993
2 50483  87.9203 328.7717 0001784  95.6085 264.5251 13.18686933226024
ONEWEB-0404             
1 50484U 21132R   26201.44429850 -.00000265  00000+0 -78314-3 0  9997
2 50484  87.8893  14.4451 0001730  81.0176 279.1147 13.11418221220053
ONEWEB-0405             
1 50485U 21132S   26201.82100779  .00000032  00000+0  48957-4 0  9997
2 50485  87.9206 328.7545 0002331  95.0103 265.1296 13.18685414226425
ONEWEB-0406             
1 50486U 21132T   26201.81256745 -.00000014  00000+0 -69051-4 0  9992
2 50486  87.9200 328.7705 0001594  83.7701 276.3613 13.18686760226057
ONEWEB-0407             
1 50487U 21132U   26201.80581764  .00000007  00000+0 -15001-4 0  9991
2 50487  87.9205 328.7651 0002013 102.9720 257.1637 13.18684518225999
ONEWEB-0409             
1 50488U 21132V   26201.74779075 -.00000316  00000+0 -92637-3 0  9992
2 50488  87.8898  14.3742 0001851  82.2902 277.8436 13.11418637219985
ONEWEB-0412             
1 50489U 21132W   26201.86989906 -.00000011  00000+0 -61509-4 0  9999
2 50489  87.9199 328.7600 0001741 108.0515 252.0807 13.18686329226090
ONEWEB-0413             
1 50490U 21132X   26201.79907773 -.00000167  00000+0 -45712-3 0  9994
2 50490  87.9193 328.7701 0001932 108.7530 251.3812 13.18685327226022
ONEWEB-0414             
1 50491U 21132Y   26201.85977988  .00000021  00000+0  20988-4 0  9993
2 50491  87.9204 328.7433 0001713 100.7923 259.3402 13.18686846226067
ONEWEB-0417             
1 50492U 21132Z   26201.86821137  .00000062  00000+0  12540-3 0  9998
2 50492  87.9196 328.7584 0001793  91.5541 268.5797 13.18683944226049
ONEWEB-0418             
1 50493U 21132AA  26201.80231500  .00000031  00000+0  46792-4 0  9995
2 50493  87.9197 328.7730 0001800  91.2359 268.8980 13.18686143226093
ONEWEB-0419             
1 50494U 21132AB  26201.82142704 -.00000097  00000+0 -27769-3 0  9991
2 50494  87.9202 328.7702 0002044  92.8478 267.2888 13.18665813226013
ONEWEB-0420             
1 50495U 21132AC  26201.78558741  .00000039  00000+0  65803-4 0  9995
2 50495  87.9194 328.7772 0002060 103.4562 256.6800 13.18684215226004
ONEWEB-0421             
1 50496U 21132AD  26201.77886084  .00000030  00000+0  44260-4 0  9994
2 50496  87.9195 328.7769 0001563 105.1838 254.9467 13.18685871226047
ONEWEB-0424             
1 50497U 21132AE  26201.81594495 -.00000033  00000+0 -11560-3 0  9993
2 50497  87.9203 328.7694 0002158  92.3788 267.7591 13.18686737226072
ONEWEB-0426             
1 50498U 21132AF  26201.85049367 -.00002796  00000+0 -71269-2 0  9990
2 50498  87.9205 328.7534 0001341  86.6347 273.4939 13.18697847226027
ONEWEB-0427             
1 50499U 21132AG  26201.81425962 -.00000285  00000+0 -75451-3 0  9995
2 50499  87.9203 328.7501 0001757  94.8311 265.3022 13.18688405226048
ONEWEB-0429             
1 50500U 21132AH  26201.80075965 -.00000222  00000+0 -59483-3 0  9999
2 50500  87.9191 328.7739 0001957 104.7581 255.3768 13.18685684226011
ONEWEB-0430             
1 50501U 21132AJ  26201.86483002  .00000016  00000+0  83672-5 0  9999
2 50501  87.9194 328.7605 0002177 112.2471 247.8892 13.18682575226069
ONEWEB-0432             
1 50502U 21132AK  26201.84784951  .00000045  00000+0  80180-4 0  9997
2 50502  87.9201 328.7506 0002340  95.7128 264.4271 13.18686512226011
ONEWEB-0440             
1 50503U 21132AL  26201.80919556  .00000024  00000+0  28162-4 0  9994
2 50503  87.9204 328.7700 0001790 109.0851 251.0475 13.18685043226006
ONEWEB-0450             
1 50504U 21132AM  26201.80258850  .00000010  00000+0 -79897-5 0  9996
2 50504  87.9196 328.7729 0002039 103.3506 256.7854 13.18686833226033
